CORAL                   
1 67684U 98067YA  26084.75996432  .00088071  00000+0  11859-2 0  9995
2 67684  51.6302 351.2217 0012394 233.2422 126.7433 15.57013747  7292
GXIBA-1                 
1 67685U 98067YB  26084.74675521  .00046237  00000+0  71170-3 0  9999
2 67685  51.6315 351.8820 0011867 240.9990 118.9812 15.53661411  7288
UITMSAT-2               
1 67686U 98067YC  26084.02680130  .00049767  00000+0  74425-3 0  9990
2 67686  51.6330 355.3278 0008862 209.1546 150.8951 15.54457501  7178
HMU-SAT2                
1 67687U 98067YD  26084.04351999  .00042841  00000+0  66878-3 0  9990
2 67687  51.6326 355.4392 0008398 211.7886 148.2598 15.53346708  7096
LEOPARD                 
1 67688U 98067YE  26084.03246038  .00050475  00000+0  76558-3 0  9995
2 67688  51.6326 355.3651 0008645 209.2587 150.7920 15.54065939  7091
CREW DRAGON 12          
1 67796U 26031A   26084.84151545  .00012012  00000+0  22938-3 0  9992
2 67796  51.6341 352.5134 0006235 232.7336 127.3084 15.48540672558771
PROGRESS-MS 33          
1 68319U 26058A   26084.84151545  .00012012  00000+0  22938-3 0  9993
2 68319  51.6341 352.5134 0006235 232.7336 127.3084 15.48540672   281
